CIC_OEM_VERS = 2.0
CREATION_DATE = 2025-01-22T08:31:27.224486
ORIGINATOR = ISAE-SUPAERO


META_START
OBJECT_NAME = BLUE2
OBJECT_ID = BLUE2
CENTER_NAME = Earth
REF_FRAME = EME2000
TIME_SYSTEM = UTC
START_TIME = 2025-01-22T00:00:00.000
USEABLE_START_TIME = 2025-01-22T00:00:00.000
USEABLE_STOP_TIME = 2025-01-23T00:00:00.000
STOP_TIME = 2025-01-23T00:00:00.000
INTERPOLATION = lagrange
INTERPOLATION_DEGREE = 5
META_STOP



60697 0.0 -6095.3416 2659.373 2003.0687 -1.5270423000000002 1.8416488 -7.203649500000001
60697 450.0 -6033.3461 3140.1957 -1346.919 1.7999716000000001 0.25068591 -7.3832835999999995
60697 900.0 -4538.903 2875.4362 -4375.9371 4.7069887 -1.4033661 -5.8053982
60697 1350.0 -1967.1076 1928.2489 -6364.019700000001 6.4907025 -2.7201417 -2.8541088
60697 1800.0 1070.0328000000002 525.36667 -6845.5441 6.7359211 -3.3887145999999997 0.75306521
60697 2250.0 3856.8767000000003 -1001.1206999999999 -5716.6762 5.4043931 -3.2604689 4.160070800000001
60697 2700.0 5745.1988 -2294.5726 -3251.1199 2.8241246 -2.3750241 6.5776877
60697 3150.0 6301.8816 -3056.3097000000002 -29.230054 -0.39607838 -0.94486758 7.4577027
60697 3600.0 5404.774200000001 -3113.0785 3199.9914 -3.5106595000000005 0.69640079 6.6123893
60697 4050.0 3265.4714 -2454.4393999999998 5692.2780999999995 -5.810552700000001 2.1731949 4.247422899999999
60697 4500.0 376.76685 -1232.5027 6874.6001 -6.776969 3.1516900000000003 0.90231417
60697 4950.0 -2598.007 272.87531 6469.9678 -6.1829485 3.4073924000000004 -2.669883
60697 5400.0 -4969.0927 1714.4268000000002 4560.820900000001 -4.1416873 2.8709502000000002 -5.6511598
60697 5850.0 -6174.805 2753.6324 1581.0562 -1.1046198 1.6530470000000002 -7.3280905
60697 6300.0 -5920.2738 3141.5163 -1772.6532 2.2155052 0.034730437 -7.2746119
60697 6750.0 -4259.7285 2783.2865 -4704.0142000000005 5.0143899 -1.5941994 -5.489159399999999
60697 7200.0 -1588.4575 1764.7558000000001 -6516.8938 6.616737199999999 -2.8400385000000004 -2.4079005
60697 7650.0 1458.4764 329.45617 -6788.235000000001 6.653042900000001 -3.4102257000000002 1.2220125000000002
60697 8100.0 4164.2791 -1183.426 -5464.057900000001 5.1346692 -3.1799219 4.5420472
60697 8550.0 5900.6488 -2420.9927000000002 -2863.2307 2.4320673000000004 -2.2122515 6.7853309
60697 9000.0 6270.2627 -3097.9159 403.30039000000005 -0.8190077800000001 -0.7382014 7.4449452
60697 9450.0 5194.2417000000005 -3060.7038 3577.1556 -3.867503 0.8992998400000001 6.3841567999999995
60697 9900.0 2924.844 -2320.3761 5927.415400000001 -6.020833400000001 2.3263904 3.8566649
60697 10350.0 -15.80181 -1047.4768000000001 6913.372200000001 -6.792894 3.2205700999999998 0.43703028
60697 10800.0 -2952.0619 466.41625 6302.2121 -5.9986093 3.3753452000000004 -3.1045928
60697 11250.0 -5201.6035999999995 1871.4261000000001 4223.7203 -3.7959744 2.7434529000000003 -5.953546500000001
60697 11700.0 -6229.6814 2836.7136 1152.5067 -0.67668396 1.4584929 -7.4231863
60697 12150.0 -5783.2177 3130.4264 -2191.38 2.6228535 -0.18059023 -7.1364115
60697 12600.0 -3963.0107000000003 2680.5115 -5013.201599999999 5.3020047 -1.7779299000000002 -5.1507646000000005
60697 13050.0 -1202.858 1594.9553 -6643.6303 6.7164679 -2.9482675 -1.9522005999999998
60697 13500.0 1841.7528 132.99091 -6703.8066 6.5437577000000005 -3.4183925 1.6858474
60697 13950.0 4455.7748 -1360.4935 -5189.668900000001 4.8445359 -3.0874675000000003 4.9058725
60697 14400.0 6033.2645999999995 -2537.6528 -2463.9047 2.0302276 -2.0416759 6.9661203
60697 14850.0 6214.247 -3127.5288 834.4003100000001 -1.2390275 -0.52958349 7.4029976
60697 15300.0 4963.343900000001 -2996.8593 3940.4815 -4.2097228 1.0979860000000001 6.1309983
60697 15750.0 2572.4734 -2177.9474 6139.495400000001 -6.2081317 2.4702687 3.450612
60697 16200.0 -408.81165000000004 -859.0658000000001 6925.040599999999 -6.7824896 3.2770249 -0.030606784
60697 16650.0 -3295.0133 657.53138 6109.3998 -5.790243800000001 3.3303628 -3.5279411
60697 17100.0 -5413.7775 2020.6052 3869.4532000000004 -3.4341862 2.6054405000000003 -6.2328387
60697 17550.0 -6259.6319 2908.3123 718.91813 -0.24496375 1.2585671 -7.4885256
60697 18000.0 -5622.6239000000005 3106.9275000000002 -2601.6277999999998 3.0203524 -0.39453931000000003 -6.9692107
60697 18450.0 -3649.8552000000004 2567.4425 -5302.4407 5.5686114 -1.9538467000000002 -4.7914887
60697 18900.0 -811.81123 1419.4593 -6743.8737 6.7893661000000005 -3.044316 -1.4888101999999999
60697 19350.0 2218.3225 -63.266034 -6592.7658 6.4084098 -3.4130561 2.1426228000000003
60697 19800.0 4730.173400000001 -1531.5776 -4894.849 4.535188600000001 -2.9833591000000004 5.249863599999999
60697 20250.0 6142.5466 -2644.0333 -2055.0843999999997 1.6204076 -1.8640319 7.1191494
60697 20700.0 6134.1953 -3145.0198 1261.9504 -1.6541818000000001 -0.31997064000000003 7.3319976
60697 21150.0 4713.282 -2921.8424 4288.1563 -4.535604500000001 1.2915648000000002 5.8541282
60697 21600.0 2210.1879 -2027.8153 6327.4709 -6.3714756 2.6041281 3.0313728
60697 22050.0 -800.21538 -668.17482 6909.5914 -6.7457503 3.3206976 -0.49818309
60697 22500.0 -3625.0396 845.25558 5892.6044 -5.5588695 3.2725512 -3.9375679
60697 22950.0 -5604.494 2161.1794 3500.0615000000003 -3.0583687 2.4576154000000003 -6.4872269
60697 23400.0 -6264.6158 2968.0964 282.891 0.18791966 1.0545404 -7.523560300000001
60697 23850.0 -5439.6094 3071.292 -3000.8777000000005 3.4055699 -0.6057997500000001 -6.7739079
60697 24300.0 -3322.3233 2444.8645 -5569.9220000000005 5.8125571 -2.1210378999999997 -4.4135228
60697 24750.0 -417.83188 1239.3346000000001 -6816.9686 6.835109 -3.1278501000000003 -1.0205435999999999
60697 25200.0 2585.839 -258.24068 -6455.6828 6.2479906000000005 -3.3944933 2.5898242000000002
60697 25650.0 4985.795099999999 -1695.8516000000002 -4581.1139 4.2085076 -2.8683916 5.5724299
60697 26100.0 6227.7393 -2739.7251 -1638.73 1.2047379 -1.6803269 7.2440218000000005
60697 26550.0 6030.2824 -3150.4331 1684.0518000000002 -2.062527 -0.11034483 7.2325808
60697 27000.0 4444.9855 -2836.1268999999998 4618.7597000000005 -4.843815800000001 1.4791176000000001 5.5549781000000005
60697 27450.0 1839.3406000000002 -1870.8164 6490.656 -6.5102815000000005 2.7273166 2.6007249000000003
60697 27900.0 -1188.5389 -475.83789 6867.196400000001 -6.682742 3.3513849000000002 -0.96368032
60697 28350.0 -3940.8720000000003 1028.5954000000002 5652.916 -5.305353 3.2023354 -4.3314918
60697 28800.0 -5773.0374 2292.5042000000003 3117.3830000000003 -2.6700197 2.3010341 -6.7154802
60697 29250.0 -6244.6533 3015.9241 -153.42166 0.62021874 0.8475 -7.5281295
60697 29700.0 -5235.0061 3023.8585000000003 -3387.1798 3.7767784000000004 -0.81331167 -6.5515993
60697 30150.0 -2981.8599 2313.5492000000004 -5814.4197 6.0329259 -2.2787032 -4.018876000000001
60697 30600.0 -22.55347 1055.5932 -6862.6485999999995 6.8537609 -3.198616 -0.5496049500000001
60697 31050.0 2942.886 -450.93452 -6293.2268 6.0633503 -3.3629995 3.0255348
60697 31500.0 5221.7446 -1852.5548999999999 -4249.8591 3.8659092 -2.7432918 5.8723173
60697 31950.0 6288.644700000001 -2824.3549 -1216.6085 0.78484337 -1.4915404 7.3403501
60697 32400.0 5903.0217 -3143.8918 2098.978 -2.4626254 0.09811541 7.1053062
60697 32850.0 4159.4979 -2740.3075 4930.973400000001 -5.1334379 1.6598097 5.2347432
60697 33300.0 1461.2706 -1707.8025 6628.3595000000005 -6.6241663 2.8395198 2.1602169
60697 33750.0 -1572.4156 -282.93889 6797.8874000000005 -6.593736600000001 3.3692624 -1.425501
60697 34200.0 -4241.4094000000005 1206.8595 5390.996099999999 -5.0305447 3.1203376 -4.7086120000000005
60697 34650.0 -5918.7592 2414.1732 2722.4281 -2.270276 2.1362993 -6.9171247000000005
60697 35100.0 -6199.6728 3051.7018 -588.92936 1.0506035999999999 0.63827954 -7.5024181
60697 35550.0 -5009.2272 2964.8996 -3759.6776 4.1331915 -1.0163781 -6.3030352
60697 36000.0 -2629.1252000000004 2174.0096000000003 -6035.468900000001 6.2293951 -2.4264745 -3.6085099
60697 36450.0 373.30281 868.8390400000001 -6880.8868 6.8454069 -3.2565866999999997 -0.076990584
60697 36900.0 3288.8563 -640.8017 -6105.7862000000005 5.8548986 -3.3188428 3.4489137999999997
60697 37350.0 5437.6591 -2001.3071000000002 -3901.7941 3.5080630999999998 -2.6085109 6.148951200000001
60697 37800.0 6325.253 -2897.7679 -789.59583 0.36157333 -1.2981902 7.4080345
60697 38250.0 5752.7207 -3125.4146 2505.9185 -2.8539097000000004 0.30517689000000003 6.9504731
60697 38700.0 3857.3525 -2634.4818 5224.177900000001 -5.4040489 1.8334924000000001 4.8939772
60697 39150.0 1076.6442 -1538.9202 6740.2536 -6.7129716 2.9406715 1.7105651000000002
60697 39600.0 -1951.1731000000002 -89.635374 6701.6653 -6.4788714 3.3743486 -1.8829283
60697 40050.0 -4526.1 1379.8906000000002 5107.1295 -4.7348304 3.0265144 -5.0683293
60697 40500.0 -6041.372200000001 2526.0571 2315.7382000000002 -1.8598757000000001 1.9636220000000002 -7.0916474
60697 40950.0 -6129.7271 3075.435 -1022.9544000000001 1.4783281 0.42719337 -7.4463334
60697 41400.0 -4762.6927000000005 2894.5699 -4117.746700000001 4.4739586000000005 -1.2146384000000001 -6.0285961
60697 41850.0 -2264.886 2026.5509 -6232.727900000001 6.4013181999999995 -2.5640648 -3.1832814
60697 42300.0 768.76344 679.48137 -6871.7955 6.8098528 -3.3016218 0.39616872000000003
60697 42750.0 3622.8114 -827.41298 -5894.0007000000005 5.6230085 -3.2620892 3.8587902
60697 43200.0 5632.8935 -2141.771 -3538.032 3.1358727 -2.4644000999999998 6.4014571
60697 43650.0 6337.4061 -2959.8450000000003 -359.08178000000004 -0.063837029 -1.1008657000000002 7.4467433000000005
60697 44100.0 5579.8505000000005 -3095.1701000000003 2903.4804 -3.2348662 0.51017261 6.76846
60697 44550.0 3539.6612000000005 -2519.0964 5497.3275 -5.6543869 1.9996204 4.5338156
60697 45000.0 687.02162 -1364.8263000000002 6825.9396 -6.7760164000000005 3.0304025 1.2534727
60697 45450.0 -2323.1261 103.31768 6578.9751 -6.3383087 3.3665805 -2.3339933999999998
60697 45900.0 -4793.5288 1546.976 4802.6426 -4.4193128 2.9211849 -5.408770400000001
60697 46350.0 -6140.1308 2627.6778 1899.2948000000001 -1.4406306 1.7836538000000002 -7.2380706
